{
    "week": 295,
    "satellites": [
        {
            "Name": "GSAT0208 (GALILEO 11)",
            "Line1": "1 41175U 15079B   24340.24447013  .00000050  00000+0  00000+0 0  9991",
            "Line2": "2 41175  55.5069 116.6116 0001343 354.4431   5.5215  1.70474296 55667",
            "SatelliteNumber": "41175",
            "Classification": "U",
            "LaunchYear": "15",
            "LaunchNumber": "079",
            "PieceOfLaunch": "B",
            "EpochYear": "24",
            "EpochDay": 340.24447013,
            "FirstDerivativeMeanMotion": 5e-07,
            "SecondDerivativeMeanMotion": "00000+0",
            "BSTAR": "00000+0",
            "SetNumber": "999",
            "Inclination": 55.5069,
            "RAAN": 116.6116,
            "Eccentricity": 0.0001343,
            "ArgumentOfPerigee": 354.4431,
            "MeanAnomaly": 5.5215,
            "MeanMotion": 1.70474296,
            "RevolutionNumber": "5566"
        },
        {
            "Name": "GSAT0211 (GALILEO 14)",
            "Line1": "1 41549U 16030A   24340.95443139  .00000032  00000+0  00000+0 0  9997",
            "Line2": "2 41549  55.2902 237.0516 0003733   1.8037 358.2813  1.70472955 53151",
            "SatelliteNumber": "41549",
            "Classification": "U",
            "LaunchYear": "16",
            "LaunchNumber": "030",
            "PieceOfLaunch": "A",
            "EpochYear": "24",
            "EpochDay": 340.95443139,
            "FirstDerivativeMeanMotion": 3.2e-07,
            "SecondDerivativeMeanMotion": "00000+0",
            "BSTAR": "00000+0",
            "SetNumber": "999",
            "Inclination": 55.2902,
            "RAAN": 237.0516,
            "Eccentricity": 0.0003733,
            "ArgumentOfPerigee": 1.8037,
            "MeanAnomaly": 358.2813,
            "MeanMotion": 1.70472955,
            "RevolutionNumber": "5315"
        },
        {
            "Name": "GSAT0210 (GALILEO 13)",
            "Line1": "1 41550U 16030B   24339.45263245  .00000037  00000+0  00000+0 0  9995",
            "Line2": "2 41550  55.2902 237.0913 0001028 243.6655 116.4113  1.70473386 53124",
            "SatelliteNumber": "41550",
            "Classification": "U",
            "LaunchYear": "16",
            "LaunchNumber": "030",
            "PieceOfLaunch": "B",
            "EpochYear": "24",
            "EpochDay": 339.45263245,
            "FirstDerivativeMeanMotion": 3.7e-07,
            "SecondDerivativeMeanMotion": "00000+0",
            "BSTAR": "00000+0",
            "SetNumber": "999",
            "Inclination": 55.2902,
            "RAAN": 237.0913,
            "Eccentricity": 0.0001028,
            "ArgumentOfPerigee": 243.6655,
            "MeanAnomaly": 116.4113,
            "MeanMotion": 1.70473386,
            "RevolutionNumber": "5312"
        },
        {
            "Name": "GSAT0207 (GALILEO 15)",
            "Line1": "1 41859U 16069A   24341.49128363  .00000052  00000+0  00000+0 0  9994",
            "Line2": "2 41859  55.1744 116.5391 0001936 307.2660  52.6876  1.70474368 49898",
            "SatelliteNumber": "41859",
            "Classification": "U",
            "LaunchYear": "16",
            "LaunchNumber": "069",
            "PieceOfLaunch": "A",
            "EpochYear": "24",
            "EpochDay": 341.49128363,
            "FirstDerivativeMeanMotion": 5.2e-07,
            "SecondDerivativeMeanMotion": "00000+0",
            "BSTAR": "00000+0",
            "SetNumber": "999",
            "Inclination": 55.1744,
            "RAAN": 116.5391,
            "Eccentricity": 0.0001936,
            "ArgumentOfPerigee": 307.266,
            "MeanAnomaly": 52.6876,
            "MeanMotion": 1.70474368,
            "RevolutionNumber": "4989"
        },
        {
            "Name": "GSAT0212 (GALILEO 16)",
            "Line1": "1 41860U 16069B   24340.75880177  .00000051  00000+0  00000+0 0  9991",
            "Line2": "2 41860  55.1726 116.5555 0001558  28.9761 331.0008  1.70474573 50139",
            "SatelliteNumber": "41860",
            "Classification": "U",
            "LaunchYear": "16",
            "LaunchNumber": "069",
            "PieceOfLaunch": "B",
            "EpochYear": "24",
            "EpochDay": 340.75880177,
            "FirstDerivativeMeanMotion": 5.1e-07,
            "SecondDerivativeMeanMotion": "00000+0",
            "BSTAR": "00000+0",
            "SetNumber": "999",
            "Inclination": 55.1726,
            "RAAN": 116.5555,
            "Eccentricity": 0.0001558,
            "ArgumentOfPerigee": 28.9761,
            "MeanAnomaly": 331.0008,
            "MeanMotion": 1.70474573,
            "RevolutionNumber": "5013"
        },
        {
            "Name": "GSAT0213 (GALILEO 17)",
            "Line1": "1 41861U 16069C   24339.95390819  .00000049  00000+0  00000+0 0  9998",
            "Line2": "2 41861  55.1739 116.5848 0002219 265.7407  94.1989  1.70474817 49989",
            "SatelliteNumber": "41861",
            "Classification": "U",
            "LaunchYear": "16",
            "LaunchNumber": "069",
            "PieceOfLaunch": "C",
            "EpochYear": "24",
            "EpochDay": 339.95390819,
            "FirstDerivativeMeanMotion": 4.9e-07,
            "SecondDerivativeMeanMotion": "00000+0",
            "BSTAR": "00000+0",
            "SetNumber": "999",
            "Inclination": 55.1739,
            "RAAN": 116.5848,
            "Eccentricity": 0.0002219,
            "ArgumentOfPerigee": 265.7407,
            "MeanAnomaly": 94.1989,
            "MeanMotion": 1.70474817,
            "RevolutionNumber": "4998"
        },
        {
            "Name": "GSAT0214 (GALILEO 18)",
            "Line1": "1 41862U 16069D   24337.75301077  .00000046  00000+0  00000+0 0  9990",
            "Line2": "2 41862  55.1713 116.6391 0001224 260.0342  99.9112  1.70474717 50079",
            "SatelliteNumber": "41862",
            "Classification": "U",
            "LaunchYear": "16",
            "LaunchNumber": "069",
            "PieceOfLaunch": "D",
            "EpochYear": "24",
            "EpochDay": 337.75301077,
            "FirstDerivativeMeanMotion": 4.6e-07,
            "SecondDerivativeMeanMotion": "00000+0",
            "BSTAR": "00000+0",
            "SetNumber": "999",
            "Inclination": 55.1713,
            "RAAN": 116.6391,
            "Eccentricity": 0.0001224,
            "ArgumentOfPerigee": 260.0342,
            "MeanAnomaly": 99.9112,
            "MeanMotion": 1.70474717,
            "RevolutionNumber": "5007"
        },
        {
            "Name": "GSAT0215 (GALILEO 19)",
            "Line1": "1 43055U 17079A   24340.58932050  .00000034  00000+0  00000+0 0  9991",
            "Line2": "2 43055  55.2675 236.8811 0001412 325.7999  34.2762  1.70473717 43468",
            "SatelliteNumber": "43055",
            "Classification": "U",
            "LaunchYear": "17",
            "LaunchNumber": "079",
            "PieceOfLaunch": "A",
            "EpochYear": "24",
            "EpochDay": 340.5893205,
            "FirstDerivativeMeanMotion": 3.4e-07,
            "SecondDerivativeMeanMotion": "00000+0",
            "BSTAR": "00000+0",
            "SetNumber": "999",
            "Inclination": 55.2675,
            "RAAN": 236.8811,
            "Eccentricity": 0.0001412,
            "ArgumentOfPerigee": 325.7999,
            "MeanAnomaly": 34.2762,
            "MeanMotion": 1.70473717,
            "RevolutionNumber": "4346"
        },
        {
            "Name": "GSAT0216 (GALILEO 20)",
            "Line1": "1 43056U 17079B   24339.12114073  .00000038  00000+0  00000+0 0  9991",
            "Line2": "2 43056  55.2686 236.9215 0002845 309.9012  50.1616  1.70473889 43455",
            "SatelliteNumber": "43056",
            "Classification": "U",
            "LaunchYear": "17",
            "LaunchNumber": "079",
            "PieceOfLaunch": "B",
            "EpochYear": "24",
            "EpochDay": 339.12114073,
            "FirstDerivativeMeanMotion": 3.8e-07,
            "SecondDerivativeMeanMotion": "00000+0",
            "BSTAR": "00000+0",
            "SetNumber": "999",
            "Inclination": 55.2686,
            "RAAN": 236.9215,
            "Eccentricity": 0.0002845,
            "ArgumentOfPerigee": 309.9012,
            "MeanAnomaly": 50.1616,
            "MeanMotion": 1.70473889,
            "RevolutionNumber": "4345"
        },
        {
            "Name": "GSAT0217 (GALILEO 21)",
            "Line1": "1 43057U 17079C   24337.58193681  .00000035  00000+0  00000+0 0  9999",
            "Line2": "2 43057  55.2675 236.9623 0002815 338.0995  21.9731  1.70473736 43418",
            "SatelliteNumber": "43057",
            "Classification": "U",
            "LaunchYear": "17",
            "LaunchNumber": "079",
            "PieceOfLaunch": "C",
            "EpochYear": "24",
            "EpochDay": 337.58193681,
            "FirstDerivativeMeanMotion": 3.5e-07,
            "SecondDerivativeMeanMotion": "00000+0",
            "BSTAR": "00000+0",
            "SetNumber": "999",
            "Inclination": 55.2675,
            "RAAN": 236.9623,
            "Eccentricity": 0.0002815,
            "ArgumentOfPerigee": 338.0995,
            "MeanAnomaly": 21.9731,
            "MeanMotion": 1.70473736,
            "RevolutionNumber": "4341"
        }
    ]
}